[
    {
        "Altitude(m)": 555411.1871286032,
        "Argument of Periapsis(deg)": 0.013245982221427002,
        "Eccentricity": 0.0,
        "Inclination(deg)": 53.0,
        "Latitude(deg)": 32.13785742870383,
        "Longitude(deg)": 95.33685244123701,
        "Mean Anomaly(deg)": 138.36508573515516,
        "RAAN(deg)": 44.98028673705604,
        "Satellite Name": "Starlink Shell 1 205",
        "Satellite Number": 205,
        "Semi-Major Axis(m)": 6931778.249405717,
        "Time(s)": 380
    },
    {
        "Altitude(m)": 555334.0059728218,
        "Argument of Periapsis(deg)": 0.013594560700938237,
        "Eccentricity": 0.0,
        "Inclination(deg)": 53.0,
        "Latitude(deg)": 31.69326717096771,
        "Longitude(deg)": 95.81745469848433,
        "Mean Anomaly(deg)": 138.99191693871188,
        "RAAN(deg)": 44.97976796697856,
        "Satellite Name": "Starlink Shell 1 205",
        "Satellite Number": 205,
        "Semi-Major Axis(m)": 6931778.249405717,
        "Time(s)": 390
    },
    {
        "Altitude(m)": 555257.6816976223,
        "Argument of Periapsis(deg)": 0.013943139180449475,
        "Eccentricity": 0.0,
        "Inclination(deg)": 53.0,
        "Latitude(deg)": 31.246530578474143,
        "Longitude(deg)": 96.29309668494044,
        "Mean Anomaly(deg)": 139.6187481422686,
        "RAAN(deg)": 44.97924919690109,
        "Satellite Name": "Starlink Shell 1 205",
        "Satellite Number": 205,
        "Semi-Major Axis(m)": 6931778.249405717,
        "Time(s)": 400
    },
    {
        "Altitude(m)": 555182.2689574644,
        "Argument of Periapsis(deg)": 0.014291717659960712,
        "Eccentricity": 0.0,
        "Inclination(deg)": 53.0,
        "Latitude(deg)": 30.79770378205322,
        "Longitude(deg)": 96.76388809757394,
        "Mean Anomaly(deg)": 140.24557934582532,
        "RAAN(deg)": 44.97873042682362,
        "Satellite Name": "Starlink Shell 1 205",
        "Satellite Number": 205,
        "Semi-Major Axis(m)": 6931778.249405717,
        "Time(s)": 410
    },
    {
        "Altitude(m)": 555107.8221452074,
        "Argument of Periapsis(deg)": 0.014640296139471948,
        "Eccentricity": 0.0,
        "Inclination(deg)": 53.0,
        "Latitude(deg)": 30.3468416553706,
        "Longitude(deg)": 97.22993689311309,
        "Mean Anomaly(deg)": 140.87241054938204,
        "RAAN(deg)": 44.97821165674614,
        "Satellite Name": "Starlink Shell 1 205",
        "Satellite Number": 205,
        "Semi-Major Axis(m)": 6931778.249405717,
        "Time(s)": 420
    },
    {
        "Altitude(m)": 555034.3953635823,
        "Argument of Periapsis(deg)": 0.014988874618983185,
        "Eccentricity": 0.0,
        "Inclination(deg)": 53.0,
        "Latitude(deg)": 29.89399784735878,
        "Longitude(deg)": 97.69134976736761,
        "Mean Anomaly(deg)": 141.49924175293873,
        "RAAN(deg)": 44.97769288666867,
        "Satellite Name": "Starlink Shell 1 205",
        "Satellite Number": 205,
        "Semi-Major Axis(m)": 6931778.249405717,
        "Time(s)": 430
    },
    {
        "Altitude(m)": 554962.0423967018,
        "Argument of Periapsis(deg)": 0.015337453098494424,
        "Eccentricity": 0.0,
        "Inclination(deg)": 53.0,
        "Latitude(deg)": 29.439224814374324,
        "Longitude(deg)": 98.14823263925244,
        "Mean Anomaly(deg)": 142.12607295649548,
        "RAAN(deg)": 44.9771741165912,
        "Satellite Name": "Starlink Shell 1 205",
        "Satellite Number": 205,
        "Semi-Major Axis(m)": 6931778.249405717,
        "Time(s)": 440
    },
    {
        "Altitude(m)": 554890.8166817313,
        "Argument of Periapsis(deg)": 0.01568603157800566,
        "Eccentricity": 0.0,
        "Inclination(deg)": 53.0,
        "Latitude(deg)": 28.98257385203746,
        "Longitude(deg)": 98.60068962629698,
        "Mean Anomaly(deg)": 142.7529041600522,
        "RAAN(deg)": 44.97665534651372,
        "Satellite Name": "Starlink Shell 1 205",
        "Satellite Number": 205,
        "Semi-Major Axis(m)": 6931778.249405717,
        "Time(s)": 450
    },
    {
        "Altitude(m)": 554820.771280665,
        "Argument of Periapsis(deg)": 0.0160346100575169,
        "Eccentricity": 0.0,
        "Inclination(deg)": 53.0,
        "Latitude(deg)": 28.524095126714453,
        "Longitude(deg)": 99.04882353706775,
        "Mean Anomaly(deg)": 143.3797353636089,
        "RAAN(deg)": 44.976136576436254,
        "Satellite Name": "Starlink Shell 1 205",
        "Satellite Number": 205,
        "Semi-Major Axis(m)": 6931778.249405717,
        "Time(s)": 460
    },
    {
        "Altitude(m)": 554751.9588522452,
        "Argument of Periapsis(deg)": 0.016383188537028134,
        "Eccentricity": 0.0,
        "Inclination(deg)": 53.0,
        "Latitude(deg)": 28.063837706610215,
        "Longitude(deg)": 99.49273636732258,
        "Mean Anomaly(deg)": 144.00656656716563,
        "RAAN(deg)": 44.975617806358784,
        "Satellite Name": "Starlink Shell 1 205",
        "Satellite Number": 205,
        "Semi-Major Axis(m)": 6931778.249405717,
        "Time(s)": 470
    },
    {
        "Altitude(m)": 554684.4316240457,
        "Argument of Periapsis(deg)": 0.01673176701653937,
        "Eccentricity": 0.0,
        "Inclination(deg)": 53.0,
        "Latitude(deg)": 27.601849592441162,
        "Longitude(deg)": 99.93252828673656,
        "Mean Anomaly(deg)": 144.63339777072233,
        "RAAN(deg)": 44.97509903628131,
        "Satellite Name": "Starlink Shell 1 205",
        "Satellite Number": 205,
        "Semi-Major Axis(m)": 6931778.249405717,
        "Time(s)": 480
    },
    {
        "Altitude(m)": 554618.2413647204,
        "Argument of Periapsis(deg)": 0.017080345496050607,
        "Eccentricity": 0.0,
        "Inclination(deg)": 53.0,
        "Latitude(deg)": 27.138177747663665,
        "Longitude(deg)": 100.36829814167773,
        "Mean Anomaly(deg)": 145.26022897427902,
        "RAAN(deg)": 44.97458026620384,
        "Satellite Name": "Starlink Shell 1 205",
        "Satellite Number": 205,
        "Semi-Major Axis(m)": 6931778.249405717,
        "Time(s)": 490
    },
    {
        "Altitude(m)": 554553.4393564328,
        "Argument of Periapsis(deg)": 0.017428923975561842,
        "Eccentricity": 0.0,
        "Inclination(deg)": 53.0,
        "Latitude(deg)": 26.672868128236374,
        "Longitude(deg)": 100.80014396090449,
        "Mean Anomaly(deg)": 145.88706017783576,
        "RAAN(deg)": 44.97406149612635,
        "Satellite Name": "Starlink Shell 1 205",
        "Satellite Number": 205,
        "Semi-Major Axis(m)": 6931778.249405717,
        "Time(s)": 500
    },
    {
        "Altitude(m)": 554490.0763674914,
        "Argument of Periapsis(deg)": 0.01777750245507308,
        "Eccentricity": 0.0,
        "Inclination(deg)": 53.0,
        "Latitude(deg)": 26.20596571189997,
        "Longitude(deg)": 101.22816195107178,
        "Mean Anomaly(deg)": 146.51389138139245,
        "RAAN(deg)": 44.97354272604888,
        "Satellite Name": "Starlink Shell 1 205",
        "Satellite Number": 205,
        "Semi-Major Axis(m)": 6931778.249405717,
        "Time(s)": 510
    },
    {
        "Altitude(m)": 554428.2026252127,
        "Argument of Periapsis(deg)": 0.018126080934584315,
        "Eccentricity": 0.0,
        "Inclination(deg)": 53.0,
        "Latitude(deg)": 25.737514526957934,
        "Longitude(deg)": 101.65244700757222,
        "Mean Anomaly(deg)": 147.14072258494915,
        "RAAN(deg)": 44.973023955971414,
        "Satellite Name": "Starlink Shell 1 205",
        "Satellite Number": 205,
        "Semi-Major Axis(m)": 6931778.249405717,
        "Time(s)": 520
    },
    {
        "Altitude(m)": 554367.867788969,
        "Argument of Periapsis(deg)": 0.018474659414095554,
        "Eccentricity": 0.0,
        "Inclination(deg)": 53.0,
        "Latitude(deg)": 25.267557680548194,
        "Longitude(deg)": 102.07309322762919,
        "Mean Anomaly(deg)": 147.7675537885059,
        "RAAN(deg)": 44.97250518589394,
        "Satellite Name": "Starlink Shell 1 205",
        "Satellite Number": 205,
        "Semi-Major Axis(m)": 6931778.249405717,
        "Time(s)": 530
    },
    {
        "Altitude(m)": 554309.1209235275,
        "Argument of Periapsis(deg)": 0.018823237893606792,
        "Eccentricity": 0.0,
        "Inclination(deg)": 53.0,
        "Latitude(deg)": 24.796137386397284,
        "Longitude(deg)": 102.49019291257105,
        "Mean Anomaly(deg)": 148.39438499206264,
        "RAAN(deg)": 44.97198641581647,
        "Satellite Name": "Starlink Shell 1 205",
        "Satellite Number": 205,
        "Semi-Major Axis(m)": 6931778.249405717,
        "Time(s)": 540
    },
    {
        "Altitude(m)": 554252.010472618,
        "Argument of Periapsis(deg)": 0.019171816373118027,
        "Eccentricity": 0.0,
        "Inclination(deg)": 53.0,
        "Latitude(deg)": 24.323294992048268,
        "Longitude(deg)": 102.90383708485514,
        "Mean Anomaly(deg)": 149.02121619561936,
        "RAAN(deg)": 44.971467645739,
        "Satellite Name": "Starlink Shell 1 205",
        "Satellite Number": 205,
        "Semi-Major Axis(m)": 6931778.249405717,
        "Time(s)": 550
    },
    {
        "Altitude(m)": 554196.5842327632,
        "Argument of Periapsis(deg)": 0.019520394852629266,
        "Eccentricity": 0.0,
        "Inclination(deg)": 53.0,
        "Latitude(deg)": 23.849071005560866,
        "Longitude(deg)": 103.31411600679579,
        "Mean Anomaly(deg)": 149.64804739917605,
        "RAAN(deg)": 44.97094887566152,
        "Satellite Name": "Starlink Shell 1 205",
        "Satellite Number": 205,
        "Semi-Major Axis(m)": 6931778.249405717,
        "Time(s)": 560
    }
]